TIANLIAN 1-01           
1 32779U 08019A   18024.84296087 -.00000137  00000-0  10000-3 0  9991
2 32779   2.8271  75.1898 0038308 232.9381 199.4434  1.00270532 35730
AMOS-3                  
1 32794U 08022A   18025.52549348 -.00000034  00000-0  00000+0 0  9990
2 32794   0.0197 143.5097 0002446 137.2928  29.0359  1.00271071 35714
GALAXY 18 (G-18)        
1 32951U 08024A   18023.99917233  .00000028  00000-0  00000+0 0  9990
2 32951   0.0124  42.3939 0003070 266.2401  51.3385  1.00270388 35349
CHINASAT 9 (ZX 9)       
1 33051U 08028A   18024.90432925 -.00000245  00000-0  00000-0 0  9991
2 33051   0.0091  50.6048 0004142 296.9403 194.3391  1.00269895 35278
SKYNET 5C               
1 33055U 08030A   18025.53521569 -.00000139  00000-0  00000+0 0  9992
2 33055   0.0591  13.2887 0003677 288.4732 357.8557  1.00270842 35168
TURKSAT 3A              
1 33056U 08030B   18025.49493733  .00000147  00000-0  00000+0 0  9997
2 33056   0.0370  81.3684 0003206 237.4990  26.0164  1.00271565 35345
INTELSAT 25 (IS-25)     
1 33153U 08034A   18024.74297129 -.00000221  00000-0  00000+0 0  9991
2 33153   0.0016 214.6009 0002865  75.3613  69.9934  1.00271173 34900
BADR-6                  
1 33154U 08034B   18024.53660441  .00000147  00000-0  00000-0 0  9997
2 33154   0.0570  44.6049 0003728 300.3863 357.9515  1.00271047 35016
ECHOSTAR 11             
1 33207U 08035A   18023.96317278 -.00000053  00000-0  00000-0 0  9997
2 33207   0.0102 346.2051 0002736 320.0397  53.7167  1.00271509 20515
SUPERBIRD-C2            
1 33274U 08038A   18024.77965903 -.00000249  00000-0  00000-0 0  9995
2 33274   0.0182  76.2476 0002336 258.5198 213.8739  1.00272552 74992
AMC-21                  
1 33275U 08038B   18024.60118696  .00000039  00000-0  00000+0 0  9992
2 33275   0.0614 286.0762 0002548  19.2591 270.0335  1.00272634 34721
INMARSAT 4-F3           
1 33278U 08039A   18025.44212626 -.00000138  00000-0  00000+0 0  9998
2 33278   3.0258   3.7069 0002979 307.8194 234.3232  1.00271723 34534
NIMIQ 4                 
1 33373U 08044A   18025.20185031 -.00000219  00000-0  00000+0 0  9993
2 33373   0.0165  63.9466 0002383 256.0151 155.1433  1.00271610 34101
GALAXY 19 (G-19)        
1 33376U 08045A   18023.92712320 -.00000136  00000-0  00000-0 0  9990
2 33376   0.0169  71.3875 0003215 236.1059  52.4640  1.00271481 34202
VENESAT-1               
1 33414U 08055A   18024.58518440 -.00000234  00000-0  00000-0 0  9993
2 33414   0.0266 121.3937 0002177 189.6700 305.4170  1.00270578 33944
ASTRA 1M                
1 33436U 08057A   18024.66879243  .00000122  00000-0  00000-0 0  9994
2 33436   0.0169  85.7326 0001123 156.3524 141.7663  1.00269385 33740
CIEL-2                  
1 33453U 08063A   18025.51712759  .00000059  00000-0  00000+0 0  9991
2 33453   0.0602 271.4250 0003161  33.6504 236.9939  1.00272287 33412
EUTELSAT HOT BIRD 13C   
1 33459U 08065A   18024.61969778  .00000089  00000-0  00000-0 0  9998
2 33459   0.0537  56.2052 0001646 257.4066  46.3611  1.00271435 16616
EUTELSAT 48D            
1 33460U 08065B   18025.17599594  .00000126  00000-0  00000+0 0  9998
2 33460   0.0692 319.7605 0002310 339.3714 296.7324  1.00270788 33374
FENGYUN 2E              
1 33463U 08066A   18024.91803935 -.00000196  00000-0  00000+0 0  9998
2 33463   2.6028  68.4180 0005439 239.1002 233.4600  1.00265135 33359
EXPRESS-AM44            
1 33595U 09007A   18025.53032089 -.00000087  00000-0  00000+0 0  9992
2 33595   0.0153 209.6107 0001304 159.1699 295.9147  1.00272708 32828
NSS-9                   
1 33749U 09008A   18024.70758980  .00000074  00000-0  00000-0 0  9993
2 33749   0.0371 308.4086 0002020 354.4550 258.8779  1.00271559 32784
EUTELSAT 33E            
1 33750U 09008B   18024.53170959  .00000158  00000-0  00000-0 0  9993
2 33750   0.0449 312.9807 0005081 313.3084  82.0079  1.00268761 32713
TELSTAR 11N             
1 34111U 09009A   18025.13050928 -.00000249  00000-0  00000+0 0  9997
2 34111   0.0239  72.3986 0002823 215.5584 205.8689  1.00269097 32687
EUTELSAT 10A            
1 34710U 09016A   18024.80781017  .00000071  00000-0  00000+0 0  9995
2 34710   0.0640   4.0510 0005479 305.0143 115.7943  1.00274006 32238
SES-7 (PROTOSTAR 2)     
1 34941U 09027A   18025.43934859 -.00000343  00000-0  00000+0 0  9990
2 34941   0.0120  49.9454 0003336 234.8022 106.3416  1.00270534 31891
MEASAT-3A               
1 35362U 09032A   18024.40220468 -.00000239  00000-0  00000-0 0  9999
2 35362   0.0530 240.6576 0002513  26.8731  92.4272  1.00271932 31507
GOES 14                 
1 35491U 09033A   18024.94454032 -.00000091  00000-0  00000+0 0  9993
2 35491   0.0663 260.8148 0009482 343.2235 115.8502  1.00271426 31428
SIRIUS FM-5             
1 35493U 09034A   18024.59004449 -.00000197  00000-0  00000-0 0  9998
2 35493   0.0150 346.0816 0000965  25.2981 238.7280  1.00270468 15988
TERRESTAR-1             
1 35496U 09035A   18024.93504709 -.00000051  00000-0  00000+0 0  9992
2 35496   2.7319 349.4721 0003060 322.6576  37.6529  1.00272292 31428
ASIASAT 5               
1 35696U 09042A   18025.27239113 -.00000306  00000-0  00000+0 0  9997
2 35696   0.0416 254.1022 0001259  25.6066  43.3683  1.00273191 30936
JCSAT-RA (JCSAT-12)     
1 35755U 09044A   18025.29862642 -.00000344  00000-0  00000+0 0  9998
2 35755   0.0482  53.2616 0001154 234.8274  71.8844  1.00270705 30934
OPTUS D3                
1 35756U 09044B   18024.68795914 -.00000145  00000-0  00000+0 0  9997
2 35756   0.0343 342.9371 0004071 332.0389 212.6459  1.00271390 30899
PALAPA D                
1 35812U 09046A   18025.34016210 -.00000356  00000-0  00000+0 0  9995
2 35812   0.0210  87.2387 0002442 254.1008  18.6374  1.00268746 30940
NIMIQ 5                 
1 35873U 09050A   18025.20813233 -.00000255  00000-0  00000+0 0  9990
2 35873   0.0588 267.8920 0002912  48.0321 170.7510  1.00271122 30623
AMAZONAS 2              
1 35942U 09054A   18024.39424310 -.00000280  00000-0  00000+0 0  9992
2 35942   0.0371 219.1852 0001389  24.9343 320.4436  1.00270688 30434
COMSATBW-1              
1 35943U 09054B   18025.16712615  .00000027  00000-0  00000+0 0  9995
2 35943   0.0601  74.7481 0002714 234.0449 298.7692  1.00270120 30520
NSS-12                  
1 36032U 09058A   18024.49783864  .00000074  00000-0  00000+0 0  9990
2 36032   0.0366 301.3885 0002644   1.7667  56.8060  1.00272300 30195
THOR 6                  
1 36033U 09058B   18025.52549348 -.00000009  00000-0  00000+0 0  9992
2 36033   0.0275 202.1644 0002066 117.3541 353.5642  1.00271301 30237
INTELSAT 14 (IS-14)     
1 36097U 09064A   18023.78311001 -.00000270  00000-0  00000+0 0  9998
2 36097   0.0182  71.8618 0002341 226.3238  61.7775  1.00271092 29966
EUTELSAT 36B            
1 36101U 09065A   18025.29629229  .00000157  00000-0  00000+0 0  9990
2 36101   0.0643   2.6305 0004879 308.5161 315.9830  1.00274634 30070
INTELSAT 15 (IS-15)     
1 36106U 09067A   18024.77930346 -.00000182  00000-0  00000+0 0  9993
2 36106   0.0426 270.1874 0002543  45.3917 174.1409  1.00269311 29866
DIRECTV 12              
1 36131U 09075A   18024.44243976 -.00000100  00000-0  00000-0 0  9991
2 36131   0.0437 231.8614 0000308 357.8044 310.4982  1.00270658 29644
BEIDOU 3                
1 36287U 10001A   18024.84641451 -.00000283  00000-0  00000-0 0  9990
2 36287   1.4946  14.2454 0002780 205.7257 348.7179  1.00266241 29436
RADUGA-1M 2             
1 36358U 10002A   18024.75740529 -.00000181  00000-0  00000-0 0  9993
2 36358   0.0422 236.9828 0002264 114.8563 129.8181  1.00271777 19377
SDO                     
1 36395U 10005A   18024.32471508 -.00000062  00000-0  00000-0 0  9996
2 36395  29.0250 136.4840 0001263 123.6703 238.2457  1.00268727 29326
INTELSAT 16 (IS-16)     
1 36397U 10006A   18024.50601675 -.00000241  00000-0  00000-0 0  9998
2 36397   0.0174  63.4129 0002282 254.1042 272.1997  1.00270391 29123
GOES 15                 
1 36411U 10008A   18024.03216078  .00000092  00000-0  00000-0 0  9997
2 36411   0.0696 253.1572 0001721 353.6805 113.1309  1.00260619 28940
ECHOSTAR 14             
1 36499U 10010A   18025.41577062  .00000002  00000-0  00000+0 0  9992
2 36499   0.0189  72.1474 0003142 228.1600 215.1383  1.00271362 28808
SES-1                   
1 36516U 10016A   18025.48032081 -.00000113  00000-0  00000+0 0  9996
2 36516   0.0524 281.5952 0002248   9.2461 265.7860  1.00271924 28408
ASTRA 3B                
1 36581U 10021A   18025.08660255  .00000139  00000-0  00000+0 0  9997
2 36581   0.0289  33.3293 0002919 268.2170 237.4447  1.00269658 27911
COMSATBW-2              
1 36582U 10021B   18024.79563171  .00000091  00000-0  00000-0 0  9992
2 36582   0.0472 254.5719 0002361  69.2803  99.8485  1.00276770 28230
BEIDOU 4                
1 36590U 10024A   18024.91271875 -.00000354  00000-0  00000-0 0  9998
2 36590   1.5286  35.3383 0007499 308.5044 219.4518  1.00270441 28048
BADR-5                  
1 36592U 10025A   18024.99486858  .00000147  00000-0  00000+0 0  9996
2 36592   0.0130 137.9789 0002651 126.4217 243.9680  1.00270355 28164
COMS 1                  
1 36744U 10032A   18025.49241801 -.00000343  00000-0  00000+0 0  9995
2 36744   0.0175 284.6486 0000518  34.3664 111.1867  1.00270189 27920
ARABSAT-5A              
1 36745U 10032B   18024.53170959  .00000156  00000-0  00000+0 0  9996
2 36745   0.0521 355.9543 0003476 318.1067  31.6142  1.00274523 27881
ECHOSTAR 15             
1 36792U 10034A   18024.50115390 -.00000279  00000-0  00000-0 0  9993
2 36792   0.0486 273.1716 0002120  31.5161 297.8065  1.00268806 27609
NILESAT 201             
1 36830U 10037A   18024.47688197 -.00000055  00000-0  00000-0 0  9997
2 36830   0.0531 223.7802 0003816  94.1242 330.4901  1.00271064 27623
RASCOM-QAF 1R           
1 36831U 10037B   18024.64762797  .00000021  00000-0  00000+0 0  9997
2 36831   0.0103  46.3410 0006295 256.2069  57.3776  1.00272493 27559
